NORAD_CAT_ID,OBJECT_NAME,OBJECT_TYPE,EPOCH,MEAN_MOTION,ECCENTRICITY,INCLINATION,RA_OF_ASC_NODE,ARG_OF_PERICENTER,MEAN_ANOMALY,BSTAR,MEAN_MOTION_DOT,MEAN_MOTION_DDOT,TLE_LINE0,TLE_LINE1,TLE_LINE2,SEMIMAJOR_AXIS,PERIOD,APOGEE,PERIGEE,DECAYED
52665.0,STARLINK-4064,PAYLOAD,2024-08-11 08:48:07,15.08849363,0.0001439,53.2152,216.8473,82.5749,277.5407,0.00031805,4.779e-05,0.0,0 STARLINK-4064,1 52665U 22053K   24224.36675885  .00004779  00000-0  31805-3 0  9995,2 52665  53.2152 216.8473 0001439  82.5749 277.5407 15.08849363124193,6917.852,95.437,540.712,538.721,0.0
52665.0,STARLINK-4064,PAYLOAD,2024-08-11 16:45:03,15.08855334,0.0001393,53.2148,215.3605,88.8328,271.2823,0.00062156,9.622e-05,0.0,0 STARLINK-4064,1 52665U 22053K   24224.69795756  .00009622  00000-0  62156-3 0  9996,2 52665  53.2148 215.3605 0001393  88.8328 271.2823 15.08855334124244,6917.834,95.437,540.662,538.735,0.0
52665.0,STARLINK-4064,PAYLOAD,2024-08-12 05:28:08,15.08846684,8.43e-05,53.2133,212.9802,100.7066,259.4021,0.00023222,3.411e-05,0.0,0 STARLINK-4064,1 52665U 22053K   24225.22787715  .00003411  00000-0  23222-3 0  9993,2 52665  53.2133 212.9802 0000843 100.7066 259.4021 15.08846684124327,6917.86,95.437,540.308,539.142,0.0
52665.0,STARLINK-4064,PAYLOAD,2024-08-12 08:38:54,15.08874492,0.0001306,53.2146,212.3851,98.3553,261.7588,0.0012163,0.00019141,0.0,0 STARLINK-4064,1 52665U 22053K   24225.36035202  .00019141  00000-0  12163-2 0  9993,2 52665  53.2146 212.3851 0001306  98.3553 261.7588 15.08874492124341,6917.775,95.435,540.543,538.737,0.0
52665.0,STARLINK-4064,PAYLOAD,2024-08-12 16:35:49,15.0890021,0.0001696,53.215,210.8994,72.1956,287.9221,0.0018731,0.00029698,0.0,0 STARLINK-4064,1 52665U 22053K   24225.69153988  .00029698  00000-0  18731-2 0  9996,2 52665  53.2150 210.8994 0001696  72.1956 287.9221 15.08900210124393,6917.696,95.434,540.735,538.388,0.0
52665.0,STARLINK-4064,PAYLOAD,2024-08-13 05:18:54,15.08831233,0.0001402,53.2148,208.5175,95.9386,264.1766,-0.00067117,-0.00010951,0.0,0 STARLINK-4064,1 52665U 22053K   24226.22146726 -.00010951  00000-0 -67117-3 0  9995,2 52665  53.2148 208.5175 0001402  95.9386 264.1766 15.08831233124478,6917.907,95.438,540.742,538.802,0.0
52665.0,STARLINK-4064,PAYLOAD,2024-08-13 08:29:41,15.08829482,0.0001419,53.2151,207.9234,89.19,270.9254,-0.00054854,-9.005e-05,0.0,0 STARLINK-4064,1 52665U 22053K   24226.35394949 -.00009005  00000-0 -54854-3 0  9993,2 52665  53.2151 207.9234 0001419  89.1900 270.9254 15.08829482124498,6917.913,95.438,540.759,538.796,0.0
52665.0,STARLINK-4064,PAYLOAD,2024-08-13 16:26:37,15.08833407,0.0001503,53.2153,206.4373,86.1637,273.9527,-0.00010805,-2.007e-05,0.0,0 STARLINK-4064,1 52665U 22053K   24226.68515306 -.00002007  00000-0 -10805-3 0  9994,2 52665  53.2153 206.4373 0001503  86.1637 273.9527 15.08833407124540,6917.901,95.438,540.805,538.726,0.0
52665.0,STARLINK-4064,PAYLOAD,2024-08-14 08:20:29,15.08823842,0.0001511,53.2163,203.4644,90.0024,270.1142,-0.00028956,-4.891e-05,0.0,0 STARLINK-4064,1 52665U 22053K   24227.34756545 -.00004891  00000-0 -28956-3 0  9999,2 52665  53.2163 203.4644 0001511  90.0024 270.1142 15.08823842124647,6917.93,95.439,540.84,538.749,0.0
52665.0,STARLINK-4064,PAYLOAD,2024-08-15 05:00:31,15.08827451,0.0001497,53.2168,199.6003,85.2871,274.8292,0.0003908,5.935e-05,0.0,0 STARLINK-4064,1 52665U 22053K   24228.20869517  .00005935  00000-0  39080-3 0  9997,2 52665  53.2168 199.6003 0001497  85.2871 274.8292 15.08827451124777,6917.919,95.438,540.819,538.748,0.0
52665.0,STARLINK-4064,PAYLOAD,2024-08-16 04:51:17,15.08841126,0.000139,53.2155,195.1389,89.6248,270.4903,0.00025225,3.729e-05,0.0,0 STARLINK-4064,1 52665U 22053K   24229.20228091  .00003729  00000-0  25225-3 0  9999,2 52665  53.2155 195.1389 0001390  89.6248 270.4903 15.08841126124922,6917.877,95.437,540.704,538.78,0.0
52665.0,STARLINK-4064,PAYLOAD,2024-08-17 04:42:03,15.08837761,0.0001381,53.2152,190.679,91.3404,268.7746,-0.00025949,-4.415e-05,0.0,0 STARLINK-4064,1 52665U 22053K   24230.19587793 -.00004415  00000-0 -25949-3 0  9994,2 52665  53.2152 190.6790 0001381  91.3404 268.7746 15.08837761125071,6917.887,95.438,540.708,538.797,0.0
52665.0,STARLINK-4064,PAYLOAD,2024-08-17 20:35:55,15.08834118,0.000147,53.2157,187.705,92.6791,267.437,-0.0001187,-2.176e-05,0.0,0 STARLINK-4064,1 52665U 22053K   24230.85827910 -.00002176  00000-0 -11870-3 0  9995,2 52665  53.2157 187.7050 0001470  92.6791 267.4370 15.08834118125177,6917.898,95.438,540.78,538.746,0.0
52665.0,STARLINK-4064,PAYLOAD,2024-08-18 04:32:51,15.08833161,0.0001386,53.2155,186.2166,85.5249,274.5901,-8.2075e-05,-1.594e-05,0.0,0 STARLINK-4064,1 52665U 22053K   24231.18948291 -.00001594  00000-0 -82075-4 0  9997,2 52665  53.2155 186.2166 0001386  85.5249 274.5901 15.08833161125224,6917.901,95.438,540.725,538.807,0.0
52665.0,STARLINK-4064,PAYLOAD,2024-08-18 06:08:14,15.08830697,0.0001461,53.216,185.9191,86.7976,273.3183,0.00014244,1.979e-05,0.0,0 STARLINK-4064,1 52665U 22053K   24231.25572591  .00001979  00000-0  14244-3 0  9998,2 52665  53.2160 185.9191 0001461  86.7976 273.3183 15.08830697125239,6917.909,95.438,540.785,538.763,0.0
52665.0,STARLINK-4064,PAYLOAD,2024-08-19 04:23:39,15.0882817,0.0001426,53.2158,181.7556,92.0176,268.098,0.00016851,2.394e-05,0.0,0 STARLINK-4064,1 52665U 22053K   24232.18309670  .00002394  00000-0  16851-3 0  9995,2 52665  53.2158 181.7556 0001426  92.0176 268.0980 15.08828170125372,6917.917,95.438,540.768,538.795,0.0
52665.0,STARLINK-4064,PAYLOAD,2024-08-19 13:55:58,15.08836742,0.0001383,53.216,179.9713,97.0505,263.0645,0.00029185,4.36e-05,0.0,0 STARLINK-4064,1 52665U 22053K   24232.58053584  .00004360  00000-0  29185-3 0  9998,2 52665  53.2160 179.9713 0001383  97.0505 263.0645 15.08836742125436,6917.89,95.438,540.712,538.799,0.0
52665.0,STARLINK-4064,PAYLOAD,2024-08-20 05:49:49,15.08842132,0.0001443,53.2157,176.9962,106.2399,253.8752,0.0002987,4.469e-05,0.0,0 STARLINK-4064,1 52665U 22053K   24233.24293645  .00004469  00000-0  29870-3 0  9997,2 52665  53.2157 176.9962 0001443 106.2399 253.8752 15.08842132125533,6917.874,95.437,540.737,538.741,0.0
52665.0,STARLINK-4064,PAYLOAD,2024-08-21 05:40:36,15.08845019,0.0001387,53.2161,172.5367,101.466,258.6488,0.00019629,2.838e-05,0.0,0 STARLINK-4064,1 52665U 22053K   24234.23653521  .00002838  00000-0  19629-3 0  9999,2 52665  53.2161 172.5367 0001387 101.4660 258.6488 15.08845019125686,6917.865,95.437,540.69,538.771,0.0
52665.0,STARLINK-4064,PAYLOAD,2024-08-21 19:59:05,15.0884102,0.0001373,53.2158,169.86,102.8607,257.2538,0.00011827,1.595e-05,0.0,0 STARLINK-4064,1 52665U 22053K   24234.83269722  .00001595  00000-0  11827-3 0  9992,2 52665  53.2158 169.8600 0001373 102.8607 257.2538 15.08841020125771,6917.877,95.437,540.692,538.792,0.0
